GLOBALSTAR M068 [-]     
1 32266U 07048D   23286.94457998 -.00000058  00000+0  25508-3 0  9990
2 32266  51.9912   8.4854 0000725 188.5204 343.6739 12.62767958740200
GLOBALSTAR M079 [+]     
1 37188U 10054A   23286.92959194 -.00000077  00000+0  14698-3 0  9991
2 37188  52.0031 203.5974 0000877  61.2822  14.9577 12.62268801599139
GLOBALSTAR M074 [+]     
1 37189U 10054B   23286.95675326 -.00000082  00000+0  12338-3 0  9992
2 37189  52.0007 202.9317 0000726  72.2233   7.8383 12.62270613599745
GLOBALSTAR M076 [+]     
1 37190U 10054C   23286.52798310 -.00000088  00000+0  90735-4 0  9990
2 37190  52.0021 204.3525 0001249  80.0052  90.6237 12.62262052599406
GLOBALSTAR M077 [+]     
1 37191U 10054D   23286.95593822 -.00000055  00000+0  27474-3 0  9992
2 37191  52.0057 159.7318 0000840  84.3725 290.6836 12.62267519599836
GLOBALSTAR M075 [+]     
1 37192U 10054E   23286.62029774 -.00000112  00000+0 -43162-4 0  9995
2 37192  51.9937 246.6699 0000663  52.6708 116.8998 12.62254130598643
GLOBALSTAR M073 [+]     
1 37193U 10054F   23286.84819238 -.00000052  00000+0  28827-3 0  9994
2 37193  52.0043 159.3280 0000882  77.7077  48.5715 12.62268562600556
GLOBALSTAR M083 [+]     
1 37739U 11033A   23286.85724175 -.00000070  00000+0  18959-3 0  9999
2 37739  51.9842 108.8649 0000646  76.4939  32.3507 12.62270327569529
GLOBALSTAR M088 [+]     
1 37740U 11033B   23286.57265574 -.00000087  00000+0  94144-4 0  9992
2 37740  51.9760  15.7402 0000480  74.7093 299.5215 12.62266147565031
GLOBALSTAR M091 [+]     
1 37741U 11033C   23286.42725302 -.00000071  00000+0  18078-3 0  9991
2 37741  52.0017 338.6450 0000434  55.9826 316.4750 12.62267108565809
GLOBALSTAR M085 [+]     
1 37742U 11033D   23286.76551402 -.00000093  00000+0  57656-4 0  9997
2 37742  51.9862 289.1948 0000459  40.4134 130.6489 12.62263718566355
GLOBALSTAR M081 [+]     
1 37743U 11033E   23286.79212917 -.00000084  00000+0  11006-3 0  9994
2 37743  51.9953 291.5231 0000642  48.6310 123.3065 12.62265496566500
GLOBALSTAR M089 [+]     
1 37744U 11033F   23286.87710307 -.00000101  00000+0  13841-4 0  9990
2 37744  51.9919 245.6062 0000730  80.5326 297.4399 12.62268150567611
GLOBALSTAR M084 [+]     
1 38040U 11080A   23286.81010154 -.00000078  00000+0  14560-3 0  9990
2 38040  51.9988 112.7736 0001052  99.9751 272.6055 12.62266882545332
GLOBALSTAR M080 [+]     
1 38041U 11080B   23286.78360194 -.00000076  00000+0  15450-3 0  9996
2 38041  52.0043 114.2456 0001265  96.3775 276.0024 12.62265534545456
GLOBALSTAR M082 [+]     
1 38042U 11080C   23286.71755308 -.00000106  00000+0 -11413-4 0  9996
2 38042  52.0077  69.8249 0000193  69.3173 303.6365 12.62271619546154
GLOBALSTAR M092 [+]     
1 38043U 11080D   23286.92885475 -.00000062  00000+0  23501-3 0  9999
2 38043  52.0065 159.5281 0000915 101.3553 272.6339 12.62272920544639
GLOBALSTAR M090 [+]     
1 38044U 11080E   23286.66461171 -.00000110  00000+0 -34193-4 0  9999
2 38044  51.9890  64.5831 0000581  81.5806 291.3537 12.62278182546264
GLOBALSTAR M086 [+]     
1 38045U 11080F   23286.71105979 -.00000103  00000+0  56079-5 0  9996
2 38045  51.9902  64.9457 0001513  66.2996  37.4276 12.62263340546217
GLOBALSTAR M097 [+]     
1 39072U 13005A   23286.87327616 -.00000072  00000+0  17776-3 0  9991
2 39072  52.0067 338.3821 0000445  52.2967 307.7940 12.62271127493484
GLOBALSTAR M093 [+]     
1 39073U 13005B   23286.84673288 -.00000068  00000+0  20206-3 0  9995
2 39073  51.9829 332.7459 0000606  35.9461 324.1446 12.62267552493559
GLOBALSTAR M094 [+]     
1 39074U 13005C   23286.60923560 -.00000106  00000+0 -13170-4 0  9998
2 39074  51.9947 247.2371 0000677  50.1856 309.9070 12.62268433495015
GLOBALSTAR M096 [+]     
1 39075U 13005D   23286.70153641 -.00000091  00000+0  73158-4 0  9999
2 39075  52.0070 294.9932 0000542  40.8107 319.2800 12.62264813493946
GLOBALSTAR M078 [+]     
1 39076U 13005E   23286.51655015 -.00000201  00000+0 -54304-3 0  9996
2 39076  51.9905  20.8953 0000495 240.9351 119.1466 12.62260145492546
GLOBALSTAR M095 [+]     
1 39077U 13005F   23286.54328593 -.00000088  00000+0  85849-4 0  9999
2 39077  51.9826  18.3172 0000194 350.7703   9.3160 12.62269368492762
GLOBALSTAR M087 [+]     
1 52888U 22064A   23286.47559145 -.00000065  00000+0  12063-3 0  9992
2 52888  51.9778 352.1272 0010009  96.2623 263.9418 13.37554865 64370
